GLOBALSTAR M035         
1 25851U 99037A   25306.48714229 -.00000100  00000+0 -13657-2 0  9998
2 25851  51.9915 106.5390 0013310 200.9234 191.1768 11.04540215111543
GLOBALSTAR M032         
1 25852U 99037B   25306.24753640 -.00000006  00000+0  19547-2 0  9991
2 25852  51.9955 282.7525 0012678  38.8829 321.2881 11.19065132150247
GLOBALSTAR M051         
1 25853U 99037C   25306.49965449 -.00000062  00000+0  24067-3 0  9997
2 25853  51.9800  67.2250 0001260 111.7050 248.3895 11.42206058148195
GLOBALSTAR M030         
1 25854U 99037D   25306.45226654 -.00000117  00000+0 -89875-3 0  9992
2 25854  51.9869 224.6559 0002960 308.0070  52.0479 11.55112466166026
GLOBALSTAR M048         
1 25872U 99041A   25306.42268803 -.00000062  00000+0  22545-3 0  9995
2 25872  51.9404   7.7931 0013400  65.7302 307.4527 11.33859587140662
GLOBALSTAR M026         
1 25873U 99041B   25306.06085622 -.00000053  00000+0  42489-3 0  9991
2 25873  52.0002 223.9975 0001847 118.1809 337.3093 11.06851075163755
GLOBALSTAR M043         
1 25874U 99041C   25306.51112978 -.00000046  00000+0  66836-3 0  9991
2 25874  51.9361 120.7369 0013568 182.2048 189.4766 11.25696592138457
GLOBALSTAR M028         
1 25875U 99041D   25306.50140576 -.00000045  00000+0  36166-3 0  9998
2 25875  51.9595 140.6343 0063568  12.7892 347.4565 12.50590964207487
